{"fetched_at":"2026-04-20T20:44:53Z","count":6160,"tles":[{"name":"2026-083E","line1":"1 68757U 26083E   26107.15977192  .00001477  00000+0  63261-4 0  9999","line2":"2 68757  98.2473 252.4151 0061702  80.1499 280.6695 15.23009713    35","category":"Other"}]}